NORAD_CAT_ID,OBJECT_NAME,OBJECT_TYPE,EPOCH,MEAN_MOTION,ECCENTRICITY,INCLINATION,RA_OF_ASC_NODE,ARG_OF_PERICENTER,MEAN_ANOMALY,BSTAR,MEAN_MOTION_DOT,MEAN_MOTION_DDOT,TLE_LINE0,TLE_LINE1,TLE_LINE2,SEMIMAJOR_AXIS,PERIOD,APOGEE,PERIGEE,DECAYED
51810.0,STARLINK-3613,PAYLOAD,2024-07-08 04:40:24,15.08840626,0.0001379,53.2162,185.4714,88.6842,271.4308,6.7411e-05,7.85e-06,0.0,0 STARLINK-3613,1 51810U 22017AU  24190.19472997  .00000785  00000-0  67411-4 0  9994,2 51810  53.2162 185.4714 0001379  88.6842 271.4308 15.08840626132182,6917.878,95.438,540.697,538.79,0.0
51810.0,STARLINK-3613,PAYLOAD,2024-07-08 09:26:33,15.08842963,0.0001398,53.2162,184.5786,91.3147,268.8006,6.708e-05,7.8e-06,0.0,0 STARLINK-3613,1 51810U 22017AU  24190.39344813  .00000780  00000-0  67080-4 0  9998,2 51810  53.2162 184.5786 0001398  91.3147 268.8006 15.08842963132092,6917.871,95.437,540.703,538.769,0.0
51810.0,STARLINK-3613,PAYLOAD,2024-07-09 09:17:21,15.08835664,0.0001386,53.2161,180.1173,93.3035,266.8116,9.0815e-06,-1.43e-06,0.0,0 STARLINK-3613,1 51810U 22017AU  24191.38705476 -.00000143  00000-0  90815-5 0  9991,2 51810  53.2161 180.1173 0001386  93.3035 266.8116 15.08835664132368,6917.894,95.438,540.717,538.8,0.0
51810.0,STARLINK-3613,PAYLOAD,2024-07-10 05:57:22,15.08835211,0.00014,53.2164,176.2515,92.6641,267.4512,-2.5525e-05,-6.94e-06,0.0,0 STARLINK-3613,1 51810U 22017AU  24192.24817833 -.00000694  00000-0 -25525-4 0  9995,2 51810  53.2164 176.2515 0001400  92.6641 267.4512 15.08835211132375,6917.895,95.438,540.729,538.792,0.0
51810.0,STARLINK-3613,PAYLOAD,2024-07-11 04:12:46,15.08835929,0.00013,53.2161,172.0892,92.5234,267.5907,4.7463e-05,4.67e-06,0.0,0 STARLINK-3613,1 51810U 22017AU  24193.17553831  .00000467  00000-0  47463-4 0  9994,2 51810  53.2161 172.0892 0001300  92.5234 267.5907 15.08835929132634,6917.893,95.438,540.657,538.859,0.0
51810.0,STARLINK-3613,PAYLOAD,2024-07-11 07:23:32,15.08838156,0.0001297,53.216,171.4944,92.3203,267.7937,6.5032e-05,7.47e-06,0.0,0 STARLINK-3613,1 51810U 22017AU  24193.30801669  .00000747  00000-0  65032-4 0  9997,2 51810  53.2160 171.4944 0001297  92.3203 267.7937 15.08838156132532,6917.886,95.438,540.648,538.854,0.0
51810.0,STARLINK-3613,PAYLOAD,2024-07-12 05:38:56,15.08835516,0.0001285,53.2163,167.3321,94.6204,265.4935,7.6892e-05,9.36e-06,0.0,0 STARLINK-3613,1 51810U 22017AU  24194.23538062  .00000936  00000-0  76892-4 0  9990,2 51810  53.2163 167.3321 0001285  94.6204 265.4935 15.08835516132799,6917.894,95.438,540.648,538.87,0.0
51810.0,STARLINK-3613,PAYLOAD,2024-07-12 07:14:19,15.08836697,0.0001291,53.2164,167.0344,92.8874,267.2265,8.51e-05,1.067e-05,0.0,0 STARLINK-3613,1 51810U 22017AU  24194.30161985  .00001067  00000-0  85100-4 0  9992,2 51810  53.2164 167.0344 0001291  92.8874 267.2265 15.08836697132687,6917.89,95.438,540.649,538.862,0.0
51810.0,STARLINK-3613,PAYLOAD,2024-07-12 15:11:15,15.08844584,0.0001212,53.216,165.5465,85.0996,275.0135,0.00012738,1.74e-05,0.0,0 STARLINK-3613,1 51810U 22017AU  24194.63281372  .00001740  00000-0  12738-3 0  9995,2 51810  53.2160 165.5465 0001212  85.0996 275.0135 15.08844584132858,6917.866,95.437,540.57,538.893,0.0
51810.0,STARLINK-3613,PAYLOAD,2024-07-13 03:54:20,15.08840196,0.0001368,53.2163,163.1697,83.0294,277.0854,4.5554e-05,4.37e-06,0.0,0 STARLINK-3613,1 51810U 22017AU  24195.16273995  .00000437  00000-0  45554-4 0  9991,2 51810  53.2163 163.1697 0001368  83.0294 277.0854 15.08840196132937,6917.88,95.438,540.691,538.798,0.0
51810.0,STARLINK-3613,PAYLOAD,2024-07-13 07:05:06,15.08843164,0.0001353,53.2165,162.5752,81.6296,278.4849,6.5066e-05,7.48e-06,0.0,0 STARLINK-3613,1 51810U 22017AU  24195.29521750  .00000748  00000-0  65066-4 0  9995,2 51810  53.2165 162.5752 0001353  81.6296 278.4849 15.08843164132830,6917.871,95.437,540.672,538.8,0.0
51810.0,STARLINK-3613,PAYLOAD,2024-07-13 15:02:01,15.08850398,0.0001281,53.2163,161.0892,86.7952,273.3187,7.2775e-05,8.71e-06,0.0,0 STARLINK-3613,1 51810U 22017AU  24195.62641075  .00000871  00000-0  72775-4 0  9997,2 51810  53.2163 161.0892 0001281  86.7952 273.3187 15.08850398133008,6917.849,95.437,540.6,538.827,0.0
51810.0,STARLINK-3613,PAYLOAD,2024-07-14 03:45:07,15.08836773,0.0001272,53.2158,158.7068,95.8376,264.2761,3.6712e-07,-2.82e-06,0.0,0 STARLINK-3613,1 51810U 22017AU  24196.15634187 -.00000282  00000-0  36712-6 0  9992,2 51810  53.2158 158.7068 0001272  95.8376 264.2761 15.08836773133087,6917.89,95.438,540.635,538.875,0.0
51810.0,STARLINK-3613,PAYLOAD,2024-07-14 06:55:53,15.08842124,0.0001351,53.216,158.1129,88.6173,271.4973,4.2001e-05,3.81e-06,0.0,0 STARLINK-3613,1 51810U 22017AU  24196.28881766  .00000381  00000-0  42001-4 0  9998,2 51810  53.2160 158.1129 0001351  88.6173 271.4973 15.08842124132985,6917.874,95.437,540.674,538.804,0.0
51810.0,STARLINK-3613,PAYLOAD,2024-07-14 14:52:48,15.08850018,0.0001327,53.2159,156.6263,89.8188,270.2956,5.7649e-05,6.3e-06,0.0,0 STARLINK-3613,1 51810U 22017AU  24196.62001087  .00000630  00000-0  57649-4 0  9997,2 51810  53.2159 156.6263 0001327  89.8188 270.2956 15.08850018133156,6917.85,95.437,540.633,538.797,0.0
51810.0,STARLINK-3613,PAYLOAD,2024-07-15 03:35:54,15.08835333,0.0001387,53.2175,154.2471,94.8759,265.2392,7.0465e-06,-1.76e-06,0.0,0 STARLINK-3613,1 51810U 22017AU  24197.14994156 -.00000176  00000-0  70465-5 0  9991,2 51810  53.2175 154.2471 0001387  94.8759 265.2392 15.08835333133235,6917.895,95.438,540.719,538.8,0.0
51810.0,STARLINK-3613,PAYLOAD,2024-07-15 21:05:08,15.08836998,0.0001395,53.2159,150.9749,100.2279,259.8871,9.681e-05,1.253e-05,0.0,0 STARLINK-3613,1 51810U 22017AU  24197.87857580  .00001253  00000-0  96810-4 0  9997,2 51810  53.2159 150.9749 0001395 100.2279 259.8871 15.08836998133347,6917.89,95.438,540.72,538.79,0.0
51810.0,STARLINK-3613,PAYLOAD,2024-07-16 03:26:42,15.08832303,0.0001431,53.2163,149.7853,97.9046,262.2108,4.5495e-05,4.36e-06,0.0,0 STARLINK-3613,1 51810U 22017AU  24198.14354175  .00000436  00000-0  45495-4 0  9995,2 51810  53.2163 149.7853 0001431  97.9046 262.2108 15.08832303133380,6917.904,95.438,540.759,538.779,0.0
51810.0,STARLINK-3613,PAYLOAD,2024-07-17 01:42:06,15.0882941,0.0001314,53.2172,145.623,94.1337,265.9806,3.6159e-05,2.87e-06,0.0,0 STARLINK-3613,1 51810U 22017AU  24199.07090654  .00000287  00000-0  36159-4 0  9998,2 51810  53.2172 145.6230 0001314  94.1337 265.9806 15.08829410133409,6917.913,95.438,540.687,538.869,0.0
51810.0,STARLINK-3613,PAYLOAD,2024-07-18 01:32:53,15.08835033,0.0001181,53.2166,141.1614,90.1308,269.9819,6.4236e-05,7.34e-06,0.0,0 STARLINK-3613,1 51810U 22017AU  24200.06450684  .00000734  00000-0  64236-4 0  9997,2 51810  53.2166 141.1614 0001181  90.1308 269.9819 15.08835033133670,6917.896,95.438,540.578,538.944,0.0
51810.0,STARLINK-3613,PAYLOAD,2024-07-18 12:40:34,15.08851721,0.0001179,53.2177,139.0859,100.1997,259.9128,0.00015601,2.197e-05,0.0,0 STARLINK-3613,1 51810U 22017AU  24200.52817354  .00002197  00000-0  15601-3 0  9995,2 51810  53.2177 139.0859 0001179 100.1997 259.9128 15.08851721133621,6917.845,95.437,540.525,538.894,0.0
51810.0,STARLINK-3613,PAYLOAD,2024-07-19 04:34:27,15.08835088,0.0001398,53.2174,136.1113,110.1887,249.9255,0.00011757,1.583e-05,0.0,0 STARLINK-3613,1 51810U 22017AU  24201.19059095  .00001583  00000-0  11757-3 0  9995,2 51810  53.2174 136.1113 0001398 110.1887 249.9255 15.08835088133843,6917.895,95.438,540.728,538.793,0.0
51810.0,STARLINK-3613,PAYLOAD,2024-07-19 12:31:21,15.08845344,0.0001068,53.218,134.626,101.5439,258.5673,0.0001839,2.641e-05,0.0,0 STARLINK-3613,1 51810U 22017AU  24201.52178150  .00002641  00000-0  18390-3 0  9992,2 51810  53.2180 134.6260 0001068 101.5439 258.5673 15.08845344133898,6917.864,95.437,540.468,538.99,0.0
51810.0,STARLINK-3613,PAYLOAD,2024-07-20 04:25:13,15.08850864,0.0001198,53.2171,131.6525,102.1212,257.9914,4.9938e-05,5.07e-06,0.0,0 STARLINK-3613,1 51810U 22017AU  24202.18418349  .00000507  00000-0  49938-4 0  9994,2 51810  53.2171 131.6525 0001198 102.1212 257.9914 15.08850864133871,6917.847,95.437,540.541,538.883,0.0
51810.0,STARLINK-3613,PAYLOAD,2024-07-21 04:16:01,15.08838023,0.0001646,53.2177,127.1872,118.2303,241.8855,0.00011661,1.568e-05,0.0,0 STARLINK-3613,1 51810U 22017AU  24203.17779163  .00001568  00000-0  11661-3 0  9997,2 51810  53.2177 127.1872 0001646 118.2303 241.8855 15.08838023134149,6917.886,95.438,540.89,538.613,0.0
51810.0,STARLINK-3613,PAYLOAD,2024-07-22 00:56:01,15.08845312,0.0001387,53.2178,123.3126,94.092,266.0231,9.1686e-06,-1.42e-06,0.0,0 STARLINK-3613,1 51810U 22017AU  24204.03891191 -.00000142  00000-0  91686-5 0  9994,2 51810  53.2178 123.3126 0001387  94.0920 266.0231 15.08845312134155,6917.864,95.437,540.689,538.77,0.0
51810.0,STARLINK-3613,PAYLOAD,2024-07-22 23:11:25,15.08847053,0.0001401,53.2181,119.1495,91.8207,268.2945,0.00011502,1.543e-05,0.0,0 STARLINK-3613,1 51810U 22017AU  24204.96626737  .00001543  00000-0  11502-3 0  9990,2 51810  53.2181 119.1495 0001401  91.8207 268.2945 15.08847053134296,6917.859,95.437,540.693,538.755,0.0
51810.0,STARLINK-3613,PAYLOAD,2024-07-23 00:46:48,15.08848238,0.0001418,53.2179,118.8527,89.8206,270.2949,0.00012373,1.682e-05,0.0,0 STARLINK-3613,1 51810U 22017AU  24205.03250646  .00001682  00000-0  12373-3 0  9992,2 51810  53.2179 118.8527 0001418  89.8206 270.2949 15.08848238134427,6917.855,95.437,540.701,538.739,0.0
51810.0,STARLINK-3613,PAYLOAD,2024-07-23 11:54:29,15.08854192,0.0001354,53.2162,116.7772,123.5858,236.5263,0.00016699,2.372e-05,0.0,0 STARLINK-3613,1 51810U 22017AU  24205.49617794  .00002372  00000-0  16699-3 0  9995,2 51810  53.2162 116.7772 0001354 123.5858 236.5263 15.08854192134370,6917.837,95.437,540.639,538.765,0.0
51810.0,STARLINK-3613,PAYLOAD,2024-07-24 03:48:23,15.08825498,0.0001604,53.2171,113.8027,127.1708,232.9431,-5.2875e-05,-1.129e-05,0.0,0 STARLINK-3613,1 51810U 22017AU  24206.15860601 -.00001129  00000-0 -52875-4 0  9994,2 51810  53.2171 113.8027 0001604 127.1708 232.9431 15.08825498134591,6917.925,95.438,540.899,538.68,0.0
